SENTINEL-2A             
1 40697U 15028A   26201.92100204 -.00000213  00000+0 -64760-4 0  9995
2 40697  98.5669 276.2918 0001319  95.4508 264.6825 14.30814477578553
SENTINEL-2B             
1 42063U 17013A   26201.91380976 -.00000167  00000+0 -47162-4 0  9990
2 42063  98.5677 276.2104 0001239  94.2071 265.9254 14.30815337489468
SENTINEL-2C             
1 60989U 24157A   26201.94878861  .00000049  00000+0  35375-4 0  9992
2 60989  98.5680 276.2510 0001028 107.2606 252.8690 14.30816754 97812
