{"fetched_at":"2026-07-21T07:07:11.422Z","source":"https://celestrak.org/NORAD/elements/gp.php?NAME=SENTINEL&FORMAT=JSON","constellation":"sentinel-2","records":[{"OBJECT_NAME":"SENTINEL-2A","OBJECT_ID":"2015-028A","EPOCH":"2026-07-20T22:06:14.576256","CLASSIFICATION_TYPE":"U","MEAN_MOTION":14.30814477,"ECCENTRICITY":0.0001319,"INCLINATION":98.5669,"RA_OF_ASC_NODE":276.2918,"ARG_OF_PERICENTER":95.4508,"MEAN_ANOMALY":264.6825,"EPHEMERIS_TYPE":0,"NORAD_CAT_ID":40697,"ELEMENT_SET_NO":999,"REV_AT_EPOCH":57855,"BSTAR":-0.000064760082,"MEAN_MOTION_DOT":-0.00000213,"MEAN_MOTION_DDOT":0},{"OBJECT_NAME":"SENTINEL-2B","OBJECT_ID":"2017-013A","EPOCH":"2026-07-20T21:55:53.163264","CLASSIFICATION_TYPE":"U","MEAN_MOTION":14.30815337,"ECCENTRICITY":0.00012394,"INCLINATION":98.5677,"RA_OF_ASC_NODE":276.2104,"ARG_OF_PERICENTER":94.2071,"MEAN_ANOMALY":265.9254,"EPHEMERIS_TYPE":0,"NORAD_CAT_ID":42063,"ELEMENT_SET_NO":999,"REV_AT_EPOCH":48946,"BSTAR":-0.000047162075,"MEAN_MOTION_DOT":-0.00000167,"MEAN_MOTION_DDOT":0},{"OBJECT_NAME":"SENTINEL-2C","OBJECT_ID":"2024-157A","EPOCH":"2026-07-20T22:46:15.335904","CLASSIFICATION_TYPE":"U","MEAN_MOTION":14.30816754,"ECCENTRICITY":0.00010287,"INCLINATION":98.568,"RA_OF_ASC_NODE":276.251,"ARG_OF_PERICENTER":107.2606,"MEAN_ANOMALY":252.869,"EPHEMERIS_TYPE":0,"NORAD_CAT_ID":60989,"ELEMENT_SET_NO":999,"REV_AT_EPOCH":9781,"BSTAR":0.000035375172,"MEAN_MOTION_DOT":4.9e-7,"MEAN_MOTION_DDOT":0}]}
